CSS (TIANHE)            
1 48274U 21035A   24084.15676316  .00048220  00000+0  49849-3 0  9991
2 48274  41.4669 242.8147 0010278 243.4737 116.5049 15.63849618165787
